{"id":"299","name":"Venus ","centerId":"500@10","centerName":"Sun ","epoch":"2000-Jan-01 12:00:00.0000","elementTable":{"periapsis":107477136916.0582,"inclination":0.05924676613057432,"longitudeOfAscendingNode":1.3382900934083817,"argumentOfPeriapsis":0.9631768255601083,"timeOfPeriapsis":2451513.720262355,"meanMotion":3.2364304684522526e-7,"meanAnomaly":0.8746677730879274,"trueAnomaly":0.8850918631453739,"apoapsis":108939199425.8,"siderealOrbitPeriod":19413935.71845952,"semiMajorAxis":108208168170.92911,"semiMinorAxis":108205698797.30215,"semiLatusRectum":108203229480.02776,"eccentricity":0.006755786251885615,"linearEccentricity":731031254.8712854},"physicalDataTable":{"meanRadius":6051840,"mass":4.8685e+24,"siderealRotationRate":2.9924e-7,"siderealRotationPeriod":20997143.78819538,"gravParameter":324858592,"obliquity":177.3},"vectorTable":{"position":[68224419898.37251,0,-83389663766.52089],"velocity":[-27105.766171976487,0,-22412.90999783929]}}
